CTC2_L_00177016-03
1 62814U 24916EH  26070.40843750  .00000000  00000+0  00000-0 0  9998
2 62814  40.0000 180.0000 0000000   0.0000   0.0000 14.79785908    15
CTC2_L_00177016-04
1 62815U 24918LR  26070.40843750  .00000000  00000+0  00000-0 0  9991
2 62815  40.0000 180.0000 0000000   0.0000  90.0000 14.79785908    15
CTC2_L_00177017-01
1 62816U 24030UB  26070.40843750  .00000000  00000+0  00000-0 0  9997
2 62816  40.0000 192.0000 0000000   0.0000 192.0000 14.79785908    12
CTC2_L_00177017-02
1 62817U 25552KH  26070.40843750  .00000000  00000+0  00000-0 0  9998
2 62817  40.0000 192.0000 0000000   0.0000 282.0000 14.79785908    13
CTC2_L_00177017-03
1 62818U 25725KB  26070.40843750  .00000000  00000+0  00000-0 0  9991
2 62818  40.0000 192.0000 0000000   0.0000  12.0000 14.79785908    15
CTC2_L_00177017-04
1 62819U 23704XO  26070.40843750  .00000000  00000+0  00000-0 0  9997
2 62819  40.0000 192.0000 0000000   0.0000 102.0000 14.79785908    16
CTC2_L_00177018-01
1 62820U 25596WA  26070.40843750  .00000000  00000+0  00000-0 0  9990
2 62820  40.0000 204.0000 0000000   0.0000 204.0000 14.79785908    15
CTC2_L_00177018-02
1 62821U 24292UA  26070.40843750  .00000000  00000+0  00000-0 0  9993
2 62821  40.0000 204.0000 0000000   0.0000 294.0000 14.79785908    15
CTC2_L_00177018-03
1 62822U 26974QE  26070.40843750  .00000000  00000+0  00000-0 0  9993
2 62822  40.0000 204.0000 0000000   0.0000  24.0000 14.79785908    17
CTC2_L_00177018-04
1 62823U 26599UP  26070.40843750  .00000000  00000+0  00000-0 0  9997
2 62823  40.0000 204.0000 0000000   0.0000 114.0000 14.79785908    18
CTC2_L_00177019-01
1 62824U 23338LO  26070.40843750  .00000000  00000+0  00000-0 0  9996
2 62824  40.0000 216.0000 0000000   0.0000 216.0000 14.79785908    15
CTC2_L_00177019-02
1 62825U 22351VQ  26070.40843750  .00000000  00000+0  00000-0 0  9991
2 62825  40.0000 216.0000 0000000   0.0000 306.0000 14.79785908    16
CTC2_L_00177019-03
1 62826U 22503OW  26070.40843750  .00000000  00000+0  00000-0 0  9991
2 62826  40.0000 216.0000 0000000   0.0000  36.0000 14.79785908    17
CTC2_L_00177019-04
1 62827U 26900OY  26070.40843750  .00000000  00000+0  00000-0 0  9997
2 62827  40.0000 216.0000 0000000   0.0000 126.0000 14.79785908    18
CTC2_L_00177020-01
1 62828U 22067YS  26070.40843750  .00000000  00000+0  00000-0 0  9998
2 62828  40.0000 228.0000 0000000   0.0000 228.0000 14.79785908    15
CTC2_L_00177020-02
1 62829U 26136BD  26070.40843750  .00000000  00000+0  00000-0 0  9990
2 62829  40.0000 228.0000 0000000   0.0000 318.0000 14.79785908    16
CTC2_L_00177020-03
1 62830U 24085GI  26070.40843750  .00000000  00000+0  00000-0 0  9993
2 62830  40.0000 228.0000 0000000   0.0000  48.0000 14.79785908    18
CTC2_L_00177020-04
1 62831U 24525AU  26070.40843750  .00000000  00000+0  00000-0 0  9993
2 62831  40.0000 228.0000 0000000   0.0000 138.0000 14.79785908    19
CTC2_L_00177021-01
1 62832U 23584FY  26070.40843750  .00000000  00000+0  00000-0 0  9998
2 62832  40.0000 240.0000 0000000   0.0000 240.0000 14.79785908    18
CTC2_L_00177021-02
1 62833U 26007FF  26070.40843750  .00000000  00000+0  00000-0 0  9992
2 62833  40.0000 240.0000 0000000   0.0000 330.0000 14.79785908    19
CTC2_L_00177021-03
1 62834U 23539YG  26070.40843750  .00000000  00000+0  00000-0 0  9990
2 62834  40.0000 240.0000 0000000   0.0000  60.0000 14.79785908    10
CTC2_L_00177021-04
1 62835U 26770BN  26070.40843750  .00000000  00000+0  00000-0 0  9991
2 62835  40.0000 240.0000 0000000   0.0000 150.0000 14.79785908    11
CTC2_L_00177022-01
1 62836U 24470QS  26070.40843750  .00000000  00000+0  00000-0 0  9997
2 62836  40.0000 252.0000 0000000   0.0000 252.0000 14.79785908    18
CTC2_L_00177022-02
1 62837U 26705YJ  26070.40843750  .00000000  00000+0  00000-0 0  9991
2 62837  40.0000 252.0000 0000000   0.0000 342.0000 14.79785908    19
CTC2_L_00177022-03
1 62838U 25287JR  26070.40843750  .00000000  00000+0  00000-0 0  9996
2 62838  40.0000 252.0000 0000000   0.0000  72.0000 14.79785908    10
CTC2_L_00177022-04
1 62839U 22154NE  26070.40843750  .00000000  00000+0  00000-0 0  9997
2 62839  40.0000 252.0000 0000000   0.0000 162.0000 14.79785908    11
CTC2_L_00177023-01
1 62840U 22874QL  26070.40843750  .00000000  00000+0  00000-0 0  9998
2 62840  40.0000 264.0000 0000000   0.0000 264.0000 14.79785908    19
CTC2_L_00177023-02
1 62841U 26521QJ  26070.40843750  .00000000  00000+0  00000-0 0  9992
2 62841  40.0000 264.0000 0000000   0.0000 354.0000 14.79785908    10
CTC2_L_00177023-03
1 62842U 22903ZK  26070.40843750  .00000000  00000+0  00000-0 0  9993
2 62842  40.0000 264.0000 0000000   0.0000  84.0000 14.79785908    11
CTC2_L_00177023-04
1 62843U 25026CQ  26070.40843750  .00000000  00000+0  00000-0 0  9993
2 62843  40.0000 264.0000 0000000   0.0000 174.0000 14.79785908    12
CTC2_L_00177024-01
1 62844U 26455ZQ  26070.40843750  .00000000  00000+0  00000-0 0  9991
2 62844  40.0000 276.0000 0000000   0.0000 276.0000 14.79785908    19
CTC2_L_00177024-02
1 62845U 22850QC  26070.40843750  .00000000  00000+0  00000-0 0  9997
2 62845  40.0000 276.0000 0000000   0.0000   6.0000 14.79785908    11
CTC2_L_00177024-03
1 62846U 23188FB  26070.40843750  .00000000  00000+0  00000-0 0  9993
2 62846  40.0000 276.0000 0000000   0.0000  96.0000 14.79785908    11
CTC2_L_00177024-04
1 62847U 26971SL  26070.40843750  .00000000  00000+0  00000-0 0  9997
2 62847  40.0000 276.0000 0000000   0.0000 186.0000 14.79785908    12
CTC2_L_00177025-01
1 62848U 25011NJ  26070.40843750  .00000000  00000+0  00000-0 0  9992
2 62848  40.0000 288.0000 0000000   0.0000 288.0000 14.79785908    19
CTC2_L_00177025-02
1 62849U 25970BX  26070.40843750  .00000000  00000+0  00000-0 0  9997
2 62849  40.0000 288.0000 0000000   0.0000  18.0000 14.79785908    11
CTC2_L_00177025-03
1 62850U 23657G   26070.40843750  .00000000  00000+0  00000-0 0  9999
2 62850  40.0000 288.0000 0000000   0.0000 108.0000 14.79785908    13
CTC2_L_00177025-04
1 62851U 26949KM  26070.40843750  .00000000  00000+0  00000-0 0  9997
2 62851  40.0000 288.0000 0000000   0.0000 198.0000 14.79785908    13
CTC2_L_00177026-01
1 62852U 23458QJ  26070.40843750  .00000000  00000+0  00000-0 0  9990
2 62852  40.0000 300.0000 0000000   0.0000 300.0000 14.79785908    14
CTC2_L_00177026-02
1 62853U 23971OR  26070.40843750  .00000000  00000+0  00000-0 0  9991
2 62853  40.0000 300.0000 0000000   0.0000  30.0000 14.79785908    15
CTC2_L_00177026-03
1 62854U 26830ZN  26070.40843750  .00000000  00000+0  00000-0 0  9999
2 62854  40.0000 300.0000 0000000   0.0000 120.0000 14.79785908    16
CTC2_L_00177026-04
1 62855U 26100B   26070.40843750  .00000000  00000+0  00000-0 0  9990
2 62855  40.0000 300.0000 0000000   0.0000 210.0000 14.79785908    17
CTC2_L_00177027-01
1 62856U 23578GT  26070.40843750  .00000000  00000+0  00000-0 0  9997
2 62856  40.0000 312.0000 0000000   0.0000 312.0000 14.79785908    14
CTC2_L_00177027-02
1 62857U 26365QM  26070.40843750  .00000000  00000+0  00000-0 0  9995
2 62857  40.0000 312.0000 0000000   0.0000  42.0000 14.79785908    15
CTC2_L_00177027-03
1 62858U 24100GO  26070.40843750  .00000000  00000+0  00000-0 0  9991
2 62858  40.0000 312.0000 0000000   0.0000 132.0000 14.79785908    16
CTC2_L_00177027-04
1 62859U 25503OG  26070.40843750  .00000000  00000+0  00000-0 0  9990
2 62859  40.0000 312.0000 0000000   0.0000 222.0000 14.79785908    17
CTC2_L_00177028-01
1 62860U 22598HK  26070.40843750  .00000000  00000+0  00000-0 0  9993
2 62860  40.0000 324.0000 0000000   0.0000 324.0000 14.79785908    15
CTC2_L_00177028-02
1 62861U 24519FH  26070.40843750  .00000000  00000+0  00000-0 0  9999
2 62861  40.0000 324.0000 0000000   0.0000  54.0000 14.79785908    16
CTC2_L_00177028-03
1 62862U 24397VW  26070.40843750  .00000000  00000+0  00000-0 0  9994
2 62862  40.0000 324.0000 0000000   0.0000 144.0000 14.79785908    17
CTC2_L_00177028-04
1 62863U 26209HX  26070.40843750  .00000000  00000+0  00000-0 0  9999
2 62863  40.0000 324.0000 0000000   0.0000 234.0000 14.79785908    18
CTC2_L_00177029-01
1 62864U 22064NV  26070.40843750  .00000000  00000+0  00000-0 0  9995
2 62864  40.0000 336.0000 0000000   0.0000 336.0000 14.79785908    15
CTC2_L_00177029-02
1 62865U 24895YM  26070.40843750  .00000000  00000+0  00000-0 0  9990
2 62865  40.0000 336.0000 0000000   0.0000  66.0000 14.79785908    16
CTC2_L_00177029-03
1 62866U 22599MW  26070.40843750  .00000000  00000+0  00000-0 0  9990
2 62866  40.0000 336.0000 0000000   0.0000 156.0000 14.79785908    17
CTC2_L_00177029-04
1 62867U 26023WD  26070.40843750  .00000000  00000+0  00000-0 0  9997
2 62867  40.0000 336.0000 0000000   0.0000 246.0000 14.79785908    18
CTC2_L_00177030-01
1 62868U 25751JY  26070.40843750  .00000000  00000+0  00000-0 0  9995
2 62868  40.0000 348.0000 0000000   0.0000 348.0000 14.79785908    15
CTC2_L_00177030-02
1 62869U 23963JP  26070.40843750  .00000000  00000+0  00000-0 0  9999
2 62869  40.0000 348.0000 0000000   0.0000  78.0000 14.79785908    16
CTC2_L_00177030-03
1 62870U 23303NC  26070.40843750  .00000000  00000+0  00000-0 0  9999
2 62870  40.0000 348.0000 0000000   0.0000 168.0000 14.79785908    18
CTC2_L_00177030-04
1 62871U 22673KZ  26070.40843750  .00000000  00000+0  00000-0 0  9999
2 62871  40.0000 348.0000 0000000   0.0000 258.0000 14.79785908    19
